{
    "links": {
        "self": "http://www.neowsapp.com/rest/v1/neo/3843138?api_key=iIulBulltgU6a56xZRHN4H3l9WmuAYTsLGpBGhQ2"
    },
    "id": "3843138",
    "neo_reference_id": "3843138",
    "name": "(2019 NM2)",
    "designation": "2019 NM2",
    "nasa_jpl_url": "http://ssd.jpl.nasa.gov/sbdb.cgi?sstr=3843138",
    "absolute_magnitude_h": 25.2,
    "estimated_diameter": {
        "kilometers": {
            "estimated_diameter_min": 0.0242412481,
            "estimated_diameter_max": 0.0542050786
        },
        "meters": {
            "estimated_diameter_min": 24.2412481101,
            "estimated_diameter_max": 54.2050786336
        },
        "miles": {
            "estimated_diameter_min": 0.0150628086,
            "estimated_diameter_max": 0.0336814639
        },
        "feet": {
            "estimated_diameter_min": 79.5316564495,
            "estimated_diameter_max": 177.8381901842
        }
    },
    "is_potentially_hazardous_asteroid": false,
    "close_approach_data": [
        {
            "close_approach_date": "2019-07-09",
            "close_approach_date_full": "2019-Jul-09 20:31",
            "epoch_date_close_approach": 1562704260000,
            "relative_velocity": {
                "kilometers_per_second": "7.0349440062",
                "kilometers_per_hour": "25325.7984222363",
                "miles_per_hour": "15736.4662474168"
            },
            "miss_distance": {
                "astronomical": "0.0849706112",
                "lunar": "33.0535677568",
                "kilometers": "12711422.448118144",
                "miles": "7898511.6504086272"
            },
            "orbiting_body": "Earth"
        },
        {
            "close_approach_date": "2022-07-03",
            "close_approach_date_full": "2022-Jul-03 16:41",
            "epoch_date_close_approach": 1656866460000,
            "relative_velocity": {
                "kilometers_per_second": "12.54767244",
                "kilometers_per_hour": "45171.6207840155",
                "miles_per_hour": "28067.8884810456"
            },
            "miss_distance": {
                "astronomical": "0.3620538964",
                "lunar": "140.8389656996",
                "kilometers": "54162491.726640668",
                "miles": "33655011.7553024984"
            },
            "orbiting_body": "Earth"
        }
    ],
    "orbital_data": {
        "orbit_id": "1",
        "orbit_determination_date": "2019-07-05 20:42:44",
        "first_observation_date": "2019-06-30",
        "last_observation_date": "2019-07-05",
        "data_arc_in_days": 5,
        "observations_used": 10,
        "orbit_uncertainty": "8",
        "minimum_orbit_intersection": ".0783924",
        "jupiter_tisserand_invariant": "4.977",
        "epoch_osculation": "2458667.5",
        "eccentricity": ".1635085432579885",
        "semi_major_axis": "1.295621952235099",
        "inclination": "12.55032026915829",
        "ascending_node_longitude": "103.1237260542357",
        "orbital_period": "538.6614224537068",
        "perihelion_distance": "1.083776694212067",
        "perihelion_argument": "204.4648363866929",
        "aphelion_distance": "1.507467210258131",
        "perihelion_time": "2458694.208779984761",
        "mean_anomaly": "342.1498990020205",
        "mean_motion": ".6683233381743405",
        "equinox": "J2000",
        "orbit_class": {
            "orbit_class_type": "AMO",
            "orbit_class_description": "Near-Earth asteroid orbits similar to that of 1221 Amor",
            "orbit_class_range": "1.017 AU < q (perihelion) < 1.3 AU"
        }
    },
    "is_sentry_object": false
}